1 37673U 11024A   14001.14284546  .00000503  00000-0  87382-4 0  9994
2 37673 098.0124 010.7431 0001318 090.4831 313.2650 14.72331364137652
